{"type": "FeatureCollection", "features": [ {"type": "Feature", "properties": {"norad_id": 39122, "name": "EUTELSAT 117 WEST A", "group": "eutelsat", "lat": 0.036796063943084205, "lon": 87.0049193248811, "alt_km": 35797.04061127218, "timestamp": "2025-12-21T07:34:34.211376+00:00", "meta": {"OBJECT_NAME": "EUTELSAT 117 WEST A", "OBJECT_ID": "2013-012A", "EPOCH": "2025-12-20T21:14:06.028800", "MEAN_MOTION": 1.00274676, "ECCENTRICITY": 0.00028106, "INCLINATION": 0.0296, "RA_OF_ASC_NODE": 303.2557, "ARG_OF_PERICENTER": 331.9621, "MEAN_ANOMALY": 16.2445, "EPHEMERIS_TYPE": 0, "CLASSIFICATION_TYPE": "U", "NORAD_CAT_ID": 39122, "ELEMENT_SET_NO": 999, "REV_AT_EPOCH": 4664, "BSTAR": 0, "MEAN_MOTION_DOT": 1e-07, "MEAN_MOTION_DDOT": 0}, "tle": {"line1": "1 39122U 13012A   25354.88479200  .00000010  00000+0  00000+0 0  9990", "line2": "2 39122   0.0296 303.2557 0002810 331.9621  16.2445  1.00274676 46642"}}, "geometry": {"type": "Point", "coordinates": [87.0049193248811, 0.036796063943084205]}}, {"type": "Feature", "properties": {"norad_id": 39163, "name": "EUTELSAT 7B", "group": "eutelsat", "lat": -0.04660238457119165, "lon": -149.28048924910138, "alt_km": 35792.98545536458, "timestamp": "2025-12-21T07:34:34.211387+00:00", "meta": {"OBJECT_NAME": "EUTELSAT 7B", "OBJECT_ID": "2013-022A", "EPOCH": "2025-12-20T21:49:25.146048", "MEAN_MOTION": 1.00270887, "ECCENTRICITY": 0.00043774, "INCLINATION": 0.0649, "RA_OF_ASC_NODE": 0.4342, "ARG_OF_PERICENTER": 321.8208, "MEAN_ANOMALY": 101.8327, "EPHEMERIS_TYPE": 0, "CLASSIFICATION_TYPE": "U", "NORAD_CAT_ID": 39163, "ELEMENT_SET_NO": 999, "REV_AT_EPOCH": 4616, "BSTAR": 0, "MEAN_MOTION_DOT": 7.1e-07, "MEAN_MOTION_DDOT": 0}, "tle": {"line1": "1 39163U 13022A   25354.90931882  .00000071  00000+0  00000+0 0  9995", "line2": "2 39163   0.0649   0.4342 0004377 321.8208 101.8327  1.00270887 46163"}}, "geometry": {"type": "Point", "coordinates": [-149.28048924910138, -0.04660238457119165]}}, {"type": "Feature", "properties": {"norad_id": 39612, "name": "EXPRESS-AT1", "group": "eutelsat", "lat": -0.028108674120205374, "lon": -100.2221621056701, "alt_km": 35787.905472123435, "timestamp": "2025-12-21T07:34:34.211398+00:00", "meta": {"OBJECT_NAME": "EXPRESS-AT1", "OBJECT_ID": "2014-010A", "EPOCH": "2025-12-20T23:02:21.700032", "MEAN_MOTION": 1.00271707, "ECCENTRICITY": 8.668e-05, "INCLINATION": 0.0151, "RA_OF_ASC_NODE": 304.288, "ARG_OF_PERICENTER": 195.6931, "MEAN_ANOMALY": 351.3941, "EPHEMERIS_TYPE": 0, "CLASSIFICATION_TYPE": "U", "NORAD_CAT_ID": 39612, "ELEMENT_SET_NO": 999, "REV_AT_EPOCH": 4303, "BSTAR": 0, "MEAN_MOTION_DOT": 1.02e-06, "MEAN_MOTION_DDOT": 0}, "tle": {"line1": "1 39612U 14010A   25354.95997338  .00000102  00000+0  00000+0 0  9990", "line2": "2 39612   0.0151 304.2880 0000866 195.6931 351.3941  1.00271707 43030"}}, "geometry": {"type": "Point", "coordinates": [-100.2221621056701, -0.028108674120205374]}}, {"type": "Feature", "properties": {"norad_id": 39613, "name": "EXPRESS-AT2", "group": "eutelsat", "lat": 0.0019236710978478826, "lon": -16.365225571952482, "alt_km": 35783.64932055582, "timestamp": "2025-12-21T07:34:34.211408+00:00", "meta": {"OBJECT_NAME": "EXPRESS-AT2", "OBJECT_ID": "2014-010B", "EPOCH": "2025-12-20T22:27:21.513024", "MEAN_MOTION": 1.00271108, "ECCENTRICITY": 0.0001041, "INCLINATION": 0.0185, "RA_OF_ASC_NODE": 328.609, "ARG_OF_PERICENTER": 322.4544, "MEAN_ANOMALY": 275.3941, "EPHEMERIS_TYPE": 0, "CLASSIFICATION_TYPE": "U", "NORAD_CAT_ID": 39613, "ELEMENT_SET_NO": 999, "REV_AT_EPOCH": 4271, "BSTAR": 0, "MEAN_MOTION_DOT": -2.58e-06, "MEAN_MOTION_DDOT": 0}, "tle": {"line1": "1 39613U 14010B   25354.93566566 -.00000258  00000+0  00000+0 0  9997", "line2": "2 39613   0.0185 328.6090 0001041 322.4544 275.3941  1.00271108 42711"}}, "geometry": {"type": "Point", "coordinates": [-16.365225571952482, 0.0019236710978478826]}}, {"type": "Feature", "properties": {"norad_id": 39773, "name": "EUTELSAT 3B", "group": "eutelsat", "lat": -0.03147119009957974, "lon": -153.15395359390172, "alt_km": 35770.16422018626, "timestamp": "2025-12-21T07:34:34.211419+00:00", "meta": {"OBJECT_NAME": "EUTELSAT 3B", "OBJECT_ID": "2014-030A", "EPOCH": "2025-12-20T21:48:17.753184", "MEAN_MOTION": 1.0027263, "ECCENTRICITY": 0.00041506, "INCLINATION": 0.0609, "RA_OF_ASC_NODE": 7.7172, "ARG_OF_PERICENTER": 225.4933, "MEAN_ANOMALY": 186.6943, "EPHEMERIS_TYPE": 0, "CLASSIFICATION_TYPE": "U", "NORAD_CAT_ID": 39773, "ELEMENT_SET_NO": 999, "REV_AT_EPOCH": 4227, "BSTAR": 0, "MEAN_MOTION_DOT": 4.3e-07, "MEAN_MOTION_DDOT": 0}, "tle": {"line1": "1 39773U 14030A   25354.90853881  .00000043  00000+0  00000+0 0  9993", "line2": "2 39773   0.0609   7.7172 0004150 225.4933 186.6943  1.00272630 42271"}}, "geometry": {"type": "Point", "coordinates": [-153.15395359390172, -0.03147119009957974]}}, {"type": "Feature", "properties": {"norad_id": 40425, "name": "EUTELSAT 115 WEST B", "group": "eutelsat", "lat": -0.012269897711120546, "lon": 88.86864133207187, "alt_km": 35787.57721020898, "timestamp": "2025-12-21T07:34:34.211429+00:00", "meta": {"OBJECT_NAME": "EUTELSAT 115 WEST B", "OBJECT_ID": "2015-010B", "EPOCH": "2025-12-20T14:23:46.908672", "MEAN_MOTION": 1.00268579, "ECCENTRICITY": 2.153e-05, "INCLINATION": 0.0116, "RA_OF_ASC_NODE": 154.8645, "ARG_OF_PERICENTER": 161.3344, "MEAN_ANOMALY": 234.2819, "EPHEMERIS_TYPE": 0, "CLASSIFICATION_TYPE": "U", "NORAD_CAT_ID": 40425, "ELEMENT_SET_NO": 999, "REV_AT_EPOCH": 3960, "BSTAR": 0, "MEAN_MOTION_DOT": -1e-08, "MEAN_MOTION_DDOT": 0}, "tle": {"line1": "1 40425U 15010B   25354.59984848 -.00000001  00000+0  00000+0 0  9996", "line2": "2 40425   0.0116 154.8645 0000215 161.3344 234.2819  1.00268579 39603"}}, "geometry": {"type": "Point", "coordinates": [88.86864133207187, -0.012269897711120546]}}, {"type": "Feature", "properties": {"norad_id": 40875, "name": "EUTELSAT 8 WEST B", "group": "eutelsat", "lat": -0.025348534712504565, "lon": -164.27340531211536, "alt_km": 35781.62603821094, "timestamp": "2025-12-21T07:34:34.211441+00:00", "meta": {"OBJECT_NAME": "EUTELSAT 8 WEST B", "OBJECT_ID": "2015-039B", "EPOCH": "2025-12-20T21:45:10.552032", "MEAN_MOTION": 1.00271081, "ECCENTRICITY": 0.00042647, "INCLINATION": 0.0632, "RA_OF_ASC_NODE": 359.2917, "ARG_OF_PERICENTER": 271.5388, "MEAN_ANOMALY": 137.2014, "EPHEMERIS_TYPE": 0, "CLASSIFICATION_TYPE": "U", "NORAD_CAT_ID": 40875, "ELEMENT_SET_NO": 999, "REV_AT_EPOCH": 3786, "BSTAR": 0, "MEAN_MOTION_DOT": -4.2e-07, "MEAN_MOTION_DDOT": 0}, "tle": {"line1": "1 40875U 15039B   25354.90637213 -.00000042  00000+0  00000+0 0  9997", "line2": "2 40875   0.0632 359.2917 0004264 271.5388 137.2014  1.00271081 37865"}}, "geometry": {"type": "Point", "coordinates": [-164.27340531211536, -0.025348534712504565]}}, {"type": "Feature", "properties": {"norad_id": 41310, "name": "EUTELSAT 9B", "group": "eutelsat", "lat": 0.026642735584485055, "lon": -147.27750391529923, "alt_km": 35777.10396202524, "timestamp": "2025-12-21T07:34:34.211451+00:00", "meta": {"OBJECT_NAME": "EUTELSAT 9B", "OBJECT_ID": "2016-005A", "EPOCH": "2025-12-20T21:49:55.098336", "MEAN_MOTION": 1.00272773, "ECCENTRICITY": 0.00044752, "INCLINATION": 0.0633, "RA_OF_ASC_NODE": 71.8002, "ARG_OF_PERICENTER": 203.8085, "MEAN_ANOMALY": 150.6034, "EPHEMERIS_TYPE": 0, "CLASSIFICATION_TYPE": "U", "NORAD_CAT_ID": 41310, "ELEMENT_SET_NO": 999, "REV_AT_EPOCH": 3632, "BSTAR": 0, "MEAN_MOTION_DOT": 8.5e-07, "MEAN_MOTION_DDOT": 0}, "tle": {"line1": "1 41310U 16005A   25354.90966549  .00000085  00000+0  00000+0 0  9999", "line2": "2 41310   0.0633  71.8002 0004475 203.8085 150.6034  1.00272773 36329"}}, "geometry": {"type": "Point", "coordinates": [-147.27750391529923, 0.026642735584485055]}}, {"type": "Feature", "properties": {"norad_id": 41382, "name": "EUTELSAT 65 WEST A", "group": "eutelsat", "lat": 0.028310321296588704, "lon": 138.55590885199868, "alt_km": 35791.82628900692, "timestamp": "2025-12-21T07:34:34.211462+00:00", "meta": {"OBJECT_NAME": "EUTELSAT 65 WEST A", "OBJECT_ID": "2016-014A", "EPOCH": "2025-12-20T21:28:49.619136", "MEAN_MOTION": 1.00273935, "ECCENTRICITY": 0.00021263, "INCLINATION": 0.0529, "RA_OF_ASC_NODE": 333.3598, "ARG_OF_PERICENTER": 299.6152, "MEAN_ANOMALY": 73.7536, "EPHEMERIS_TYPE": 0, "CLASSIFICATION_TYPE": "U", "NORAD_CAT_ID": 41382, "ELEMENT_SET_NO": 999, "REV_AT_EPOCH": 3574, "BSTAR": 0, "MEAN_MOTION_DOT": -2.53e-06, "MEAN_MOTION_DDOT": 0}, "tle": {"line1": "1 41382U 16014A   25354.89501874 -.00000253  00000+0  00000+0 0  9990", "line2": "2 41382   0.0529 333.3598 0002126 299.6152  73.7536  1.00273935 35745"}}, "geometry": {"type": "Point", "coordinates": [138.55590885199868, 0.028310321296588704]}}, {"type": "Feature", "properties": {"norad_id": 41589, "name": "EUTELSAT 117 WEST B", "group": "eutelsat", "lat": -0.013749506756566086, "lon": 86.79741213381297, "alt_km": 35786.60705743376, "timestamp": "2025-12-21T07:34:34.211472+00:00", "meta": {"OBJECT_NAME": "EUTELSAT 117 WEST B", "OBJECT_ID": "2016-038B", "EPOCH": "2025-12-20T16:05:44.643840", "MEAN_MOTION": 1.00273449, "ECCENTRICITY": 4.349e-05, "INCLINATION": 0.0079, "RA_OF_ASC_NODE": 146.2318, "ARG_OF_PERICENTER": 177.0977, "MEAN_ANOMALY": 250.626, "EPHEMERIS_TYPE": 0, "CLASSIFICATION_TYPE": "U", "NORAD_CAT_ID": 41589, "ELEMENT_SET_NO": 999, "REV_AT_EPOCH": 3487, "BSTAR": 0, "MEAN_MOTION_DOT": 1.1e-07, "MEAN_MOTION_DDOT": 0}, "tle": {"line1": "1 41589U 16038B   25354.67065560  .00000011  00000+0  00000+0 0  9999", "line2": "2 41589   0.0079 146.2318 0000434 177.0977 250.6260  1.00273449 34872"}}, "geometry": {"type": "Point", "coordinates": [86.79741213381297, -0.013749506756566086]}}]}